NORAD_CAT_ID,OBJECT_NAME,OBJECT_TYPE,EPOCH,MEAN_MOTION,ECCENTRICITY,INCLINATION,RA_OF_ASC_NODE,ARG_OF_PERICENTER,MEAN_ANOMALY,BSTAR,MEAN_MOTION_DOT,MEAN_MOTION_DDOT,TLE_LINE0,TLE_LINE1,TLE_LINE2,SEMIMAJOR_AXIS,PERIOD,APOGEE,PERIGEE,DECAYED
50819.0,STARLINK-3327,PAYLOAD,2024-01-14 11:49:48,15.08846827,0.0001344,53.2167,94.0042,81.5825,278.5319,0.00080012,0.00012471,0.0,0 STARLINK-3327,1 50819U 22001S   24014.49291818  .00012471  00000-0  80012-3 0  9990,2 50819  53.2167  94.0042 0001344  81.5825 278.5319 15.08846827113075,6917.86,95.437,540.654,538.795,0.0
50819.0,STARLINK-3327,PAYLOAD,2024-01-15 11:40:34,15.08856219,0.0001287,53.2165,89.5436,88.5359,271.578,0.00045908,7.029e-05,0.0,0 STARLINK-3327,1 50819U 22001S   24015.48651250  .00007029  00000-0  45908-3 0  9998,2 50819  53.2165  89.5436 0001287  88.5359 271.5780 15.08856219113222,6917.831,95.437,540.586,538.805,0.0
50819.0,STARLINK-3327,PAYLOAD,2024-01-16 09:55:59,15.08838141,0.000119,53.2167,85.3807,84.2574,275.8554,4.8167e-05,4.79e-06,0.0,0 STARLINK-3327,1 50819U 22001S   24016.41388014  .00000479  00000-0  48167-4 0  9990,2 50819  53.2167  85.3807 0001190  84.2574 275.8554 15.08838141113360,6917.886,95.438,540.574,538.928,0.0
50819.0,STARLINK-3327,PAYLOAD,2024-01-16 13:06:45,15.08831463,0.0001804,53.2185,84.7902,30.161,329.9486,1.6619e-05,-2.4e-07,0.0,0 STARLINK-3327,1 50819U 22001S   24016.54636510 -.00000024  00000-0  16619-4 0  9995,2 50819  53.2185  84.7902 0001804  30.1610 329.9486 15.08831463112186,6917.906,95.438,541.019,538.523,0.0
50819.0,STARLINK-3327,PAYLOAD,2024-01-17 09:46:47,15.08830545,0.0001376,53.2175,80.9184,101.0059,259.1088,1.6743e-05,-2.1e-07,0.0,0 STARLINK-3327,1 50819U 22001S   24017.40748888 -.00000021  00000-0  16743-4 0  9998,2 50819  53.2175  80.9184 0001376 101.0059 259.1088 15.08830545112311,6917.909,95.438,540.726,538.822,0.0
50819.0,STARLINK-3327,PAYLOAD,2024-01-17 22:29:52,15.08847391,0.0001154,53.2171,78.5442,74.2103,285.9016,0.00047285,7.247e-05,0.0,0 STARLINK-3327,1 50819U 22001S   24017.93740779  .00007247  00000-0  47285-3 0  9997,2 50819  53.2171  78.5442 0001154  74.2103 285.9016 15.08847391113598,6917.858,95.437,540.521,538.924,0.0
50819.0,STARLINK-3327,PAYLOAD,2024-01-18 12:48:19,15.08857125,0.0001235,53.216,75.8638,101.3228,258.7903,0.00050237,7.72e-05,0.0,0 STARLINK-3327,1 50819U 22001S   24018.53356168  .00007720  00000-0  50237-3 0  9996,2 50819  53.2160  75.8638 0001235 101.3228 258.7903 15.08857125112489,6917.828,95.436,540.547,538.839,0.0
50819.0,STARLINK-3327,PAYLOAD,2024-01-19 03:06:48,15.08846377,0.0001122,53.2171,73.1897,95.5841,264.5279,9.1967e-06,-1.41e-06,0.0,0 STARLINK-3327,1 50819U 22001S   24019.12972283 -.00000141  00000-0  91967-5 0  9992,2 50819  53.2171  73.1897 0001122  95.5841 264.5279 15.08846377113770,6917.861,95.437,540.502,538.95,0.0
50819.0,STARLINK-3327,PAYLOAD,2024-01-19 11:03:43,15.08854462,0.000125,53.2168,71.7032,91.2003,268.9132,0.00016452,2.332e-05,0.0,0 STARLINK-3327,1 50819U 22001S   24019.46091884  .00002332  00000-0  16452-3 0  9995,2 50819  53.2168  71.7032 0001250  91.2003 268.9132 15.08854462112629,6917.836,95.437,540.566,538.836,0.0
50819.0,STARLINK-3327,PAYLOAD,2024-01-20 09:19:07,15.08843192,0.0001629,53.2185,67.541,74.4855,285.6317,9.7757e-05,1.268e-05,0.0,0 STARLINK-3327,1 50819U 22001S   24020.38828446  .00001268  00000-0  97757-4 0  9995,2 50819  53.2185  67.5410 0001629  74.4855 285.6317 15.08843192113966,6917.871,95.437,540.863,538.609,0.0
50819.0,STARLINK-3327,PAYLOAD,2024-01-20 12:29:53,15.08847276,0.0001644,53.2186,66.941,78.8609,281.2568,0.00011762,1.585e-05,0.0,0 STARLINK-3327,1 50819U 22001S   24020.52076156  .00001585  00000-0  11762-3 0  9997,2 50819  53.2186  66.9410 0001644  78.8609 281.2568 15.08847276112788,6917.858,95.437,540.86,538.586,0.0
50819.0,STARLINK-3327,PAYLOAD,2024-01-20 23:37:36,15.08840932,0.0001581,53.2178,64.8646,101.9207,258.1962,0.00011412,1.529e-05,0.0,0 STARLINK-3327,1 50819U 22001S   24020.98444449  .00001529  00000-0  11412-3 0  9991,2 50819  53.2178  64.8646 0001581 101.9207 258.1962 15.08840932112850,6917.878,95.437,540.836,538.649,0.0
50819.0,STARLINK-3327,PAYLOAD,2024-01-21 12:20:40,15.08845758,0.0002111,53.2176,62.4787,132.701,227.4161,0.00016501,2.339e-05,0.0,0 STARLINK-3327,1 50819U 22001S   24021.51436007  .00002339  00000-0  16501-3 0  9996,2 50819  53.2176  62.4787 0002111 132.7010 227.4161 15.08845758114136,6917.863,95.437,541.188,538.267,0.0
50819.0,STARLINK-3327,PAYLOAD,2024-01-22 05:49:56,15.08826853,0.0001982,53.2165,59.2068,126.6369,233.4806,0.00048515,7.439e-05,0.0,0 STARLINK-3327,1 50819U 22001S   24022.24301140  .00007439  00000-0  48515-3 0  9992,2 50819  53.2165  59.2068 0001982 126.6369 233.4806 15.08826853113041,6917.921,95.438,541.157,538.414,0.0
50819.0,STARLINK-3327,PAYLOAD,2024-01-22 09:00:41,15.08844897,0.0001708,53.2173,58.6196,100.9052,259.2132,0.0001007,1.315e-05,0.0,0 STARLINK-3327,1 50819U 22001S   24022.37548441  .00001315  00000-0  10070-3 0  9995,2 50819  53.2173  58.6196 0001708 100.9052 259.2132 15.08844897114266,6917.865,95.437,540.912,538.549,0.0
50819.0,STARLINK-3327,PAYLOAD,2024-01-22 12:11:28,15.08845856,0.0001661,53.2168,58.0216,101.4877,258.6301,0.00014008,1.942e-05,0.0,0 STARLINK-3327,1 50819U 22001S   24022.50796325  .00001942  00000-0  14008-3 0  9997,2 50819  53.2168  58.0216 0001661 101.4877 258.6301 15.08845856113082,6917.862,95.437,540.877,538.578,0.0
50819.0,STARLINK-3327,PAYLOAD,2024-01-23 05:40:42,15.08838061,0.0002093,53.2178,54.7478,119.8497,240.2704,8.0554e-05,9.94e-06,0.0,0 STARLINK-3327,1 50819U 22001S   24023.23660764  .00000994  00000-0  80554-4 0  9991,2 50819  53.2178  54.7478 0002093 119.8497 240.2704 15.08838061113193,6917.886,95.438,541.199,538.303,0.0
50819.0,STARLINK-3327,PAYLOAD,2024-01-23 07:16:06,15.08838462,0.000205,53.2187,54.4504,120.632,239.4874,8.6311e-05,1.086e-05,0.0,0 STARLINK-3327,1 50819U 22001S   24023.30284732  .00001086  00000-0  86311-4 0  9996,2 50819  53.2187  54.4504 0002050 120.6320 239.4874 15.08838462114406,6917.885,95.438,541.168,538.332,0.0
50819.0,STARLINK-3327,PAYLOAD,2024-01-24 07:06:53,15.0883598,0.0001683,53.2187,49.9903,103.0988,257.0192,7.2784e-05,8.7e-06,0.0,0 STARLINK-3327,1 50819U 22001S   24024.29645241  .00000870  00000-0  72784-4 0  9990,2 50819  53.2187  49.9903 0001683 103.0988 257.0192 15.08835980114551,6917.893,95.438,540.922,538.593,0.0
50819.0,STARLINK-3327,PAYLOAD,2024-01-25 06:57:40,15.08847103,0.0001897,53.2192,45.5425,112.6081,247.5112,0.00014761,2.062e-05,0.0,0 STARLINK-3327,1 50819U 22001S   24025.29004960  .00002062  00000-0  14761-3 0  9993,2 50819  53.2192  45.5425 0001897 112.6081 247.5112 15.08847103114708,6917.859,95.437,541.036,538.411,0.0
50819.0,STARLINK-3327,PAYLOAD,2024-01-26 08:23:51,15.08837678,0.0001654,53.2189,40.7842,71.9167,288.2005,0.00014773,2.064e-05,0.0,0 STARLINK-3327,1 50819U 22001S   24026.34989947  .00002064  00000-0  14773-3 0  9992,2 50819  53.2189  40.7842 0001654  71.9167 288.2005 15.08837678114863,6917.887,95.438,540.897,538.608,0.0
50819.0,STARLINK-3327,PAYLOAD,2024-01-27 09:50:01,15.08843185,0.0001706,53.2206,36.0088,70.9857,289.132,0.00015122,2.12e-05,0.0,0 STARLINK-3327,1 50819U 22001S   24027.40973535  .00002120  00000-0  15122-3 0  9998,2 50819  53.2206  36.0088 0001706  70.9857 289.1320 15.08843185115025,6917.871,95.437,540.916,538.555,0.0
50819.0,STARLINK-3327,PAYLOAD,2024-01-28 09:40:48,15.08843899,0.0002258,53.2207,31.5571,130.0866,230.0325,3.4775e-05,2.65e-06,0.0,0 STARLINK-3327,1 50819U 22001S   24028.40333412  .00000265  00000-0  34775-4 0  9997,2 50819  53.2207  31.5571 0002258 130.0866 230.0325 15.08843899113978,6917.868,95.437,541.296,538.171,0.0
50819.0,STARLINK-3327,PAYLOAD,2024-01-29 03:10:02,15.08847178,0.0001878,53.2194,28.286,123.825,236.2921,2.4639e-05,1.04e-06,0.0,0 STARLINK-3327,1 50819U 22001S   24029.13197329  .00000104  00000-0  24639-4 0  9993,2 50819  53.2194  28.2860 0001878 123.8250 236.2921 15.08847178115281,6917.858,95.437,541.023,538.424,0.0
50819.0,STARLINK-3327,PAYLOAD,2024-01-29 06:20:48,15.08849721,0.0001929,53.2204,27.6921,118.232,241.8867,4.7051e-05,4.61e-06,0.0,0 STARLINK-3327,1 50819U 22001S   24029.26445153  .00000461  00000-0  47051-4 0  9997,2 50819  53.2204  27.6921 0001929 118.2320 241.8867 15.08849721114104,6917.851,95.437,541.05,538.381,0.0
50819.0,STARLINK-3327,PAYLOAD,2024-01-30 04:36:12,15.08842598,0.0001891,53.2199,23.5283,120.7862,239.3317,5.7894e-05,6.33e-06,0.0,0 STARLINK-3327,1 50819U 22001S   24030.19181487  .00000633  00000-0  57894-4 0  9995,2 50819  53.2199  23.5283 0001891 120.7862 239.3317 15.08842598115445,6917.872,95.437,541.046,538.429,0.0
50819.0,STARLINK-3327,PAYLOAD,2024-01-30 06:11:35,15.0884329,0.0001756,53.22,23.2315,113.8061,246.3115,5.3801e-05,5.68e-06,0.0,0 STARLINK-3327,1 50819U 22001S   24030.25805491  .00000568  00000-0  53801-4 0  9991,2 50819  53.2200  23.2315 0001756 113.8061 246.3115 15.08843290114257,6917.87,95.437,540.95,538.521,0.0
50819.0,STARLINK-3327,PAYLOAD,2024-01-31 06:02:22,15.08848432,0.0001567,53.2207,18.7746,108.9478,251.1684,3.4221e-05,2.57e-06,0.0,0 STARLINK-3327,1 50819U 22001S   24031.25165337  .00000257  00000-0  34221-4 0  9990,2 50819  53.2207  18.7746 0001567 108.9478 251.1684 15.08848432115606,6917.855,95.437,540.804,538.636,0.0
50819.0,STARLINK-3327,PAYLOAD,2024-01-31 21:56:14,15.08838547,0.0001686,53.2213,15.8038,103.1048,257.0133,0.00010491,1.382e-05,0.0,0 STARLINK-3327,1 50819U 22001S   24031.91405767  .00001382  00000-0  10491-3 0  9999,2 50819  53.2213  15.8038 0001686 103.1048 257.0133 15.08838547114505,6917.885,95.438,540.916,538.583,0.0
50819.0,STARLINK-3327,PAYLOAD,2024-02-01 02:42:24,15.08835316,0.0001838,53.2203,14.9058,114.3385,245.7799,1.8446e-05,5e-08,0.0,0 STARLINK-3327,1 50819U 22001S   24032.11278257  .00000005  00000-0  18446-4 0  9994,2 50819  53.2203  14.9058 0001838 114.3385 245.7799 15.08835316115732,6917.895,95.438,541.031,538.488,0.0
